DIAMOND RED             
1 42783U 17036U   24048.05189260  .00125553  00000+0  11263-2 0  9995
2 42783  97.1141  85.5835 0001798 275.8594  84.2463 15.67898253370740
DIAMOND GREEN           
1 42785U 17036W   24048.06365003  .00187681  00000+0  12188-2 0  9996
2 42785  97.1086  86.7491 0001561 246.8134 113.2967 15.75434781370818
DIAMOND BLUE            
1 42786U 17036X   24048.07578220  .00155046  00000+0  12091-2 0  9998
2 42786  97.1132  86.2023 0001911 251.3940 108.7116 15.71218407370773
CICERO 6                
1 42793U 17036AE  24048.09012454  .00076078  00000+0  95399-3 0  9990
2 42793  97.1143  84.3635 0002437 278.8134  81.2847 15.59496493370768
CORVUS BC2              
1 42846U 17042X   24048.47946215  .00005884  00000+0  52201-3 0  9991
2 42846  97.3744 240.3988 0010120 103.1573 257.0779 14.96498422359382
CORVUS BC1              
1 42847U 17042Y   24048.51939342  .00004934  00000+0  43697-3 0  9994
2 42847  97.3732 240.8212 0009239 102.4321 257.7936 14.96641873359402
MIRATA                  
1 43015U 17073C   24048.43445089  .00026624  00000+0  14038-2 0  9993
2 43015  97.6108 295.0191 0186788 311.9591  46.5843 15.01677509338173
MAKERSAT 0              
1 43016U 17073D   24048.11310743  .00016981  00000+0  10318-2 0  9999
2 43016  97.5997 290.6790 0206788 329.3306  29.5957 14.94369581337800
CORVUS BC3              
1 43118U 18004H   24048.48687535  .00079161  00000+0  10045-2 0  9999
2 43118  97.2986 130.1748 0004427 316.1451  43.9454 15.59162666339957
GOMX-4B                 
1 43196U 18015E   24048.41988237  .00045998  00000+0  81349-3 0  9990
2 43196  97.5983 214.2027 0010267  37.1395 323.0565 15.50132920336743
GOMX-4A                 
1 43197U 18015F   24048.46174112  .00050797  00000+0  73177-3 0  9998
2 43197  97.5936 217.9340 0009346  28.1224 332.0532 15.55825971337001
CUBEBEL-1 (BSUSAT-1)    
1 43666U 18083E   24047.78632404  .00531898  00000+0  20559-2 0  9992
2 43666  97.3369  90.6776 0002524 267.6498  92.4484 15.85948042295153
CICERO 10               
1 43690U 18088A   24048.31094304  .00072035  00000+0  11002-2 0  9991
2 43690  85.0197 264.9092 0009398  34.7266 325.4605 15.54111091293280
PROXIMA I               
1 43694U 18088E   24048.06659301  .00090339  00000+0  99136-3 0  9993
2 43694  85.0118 259.2086 0007998 359.2422   0.8828 15.62879576293661
PROXIMA II              
1 43696U 18088G   24048.05538536  .00086935  00000+0  97515-3 0  9996
2 43696  85.0103 259.3369 0007788 357.8179   2.3049 15.62326104293657
SIRION PATHFINDER-2     
1 43759U 18099B   24047.70646707  .00007121  00000+0  55891-3 0  9990
2 43759  97.5450 107.2943 0015304 351.1502   8.9450 15.01131491284271
CORVUS BC4              
1 43767U 18099K   24047.88839338  .00005871  00000+0  46915-3 0  9999
2 43767  97.5289 105.0531 0012946  51.0465 309.1911 15.00542929284192
MOVE-II                 
1 43780U 18099Y   24047.73724879  .00020993  00000+0  12684-2 0  9998
2 43780  97.5385 112.2630 0008143  42.6102 317.5758 15.10677453284567
SPACEBEE-7              
1 43816U 18099BL  24047.70404660  .00015389  00000+0  10076-2 0  9994
2 43816  97.5659 113.1566 0010453 353.2900   6.8186 15.07784864284084
SPACEBEE-5              
1 43817U 18099BM  24048.19811407  .01300092  00000+0  50981-2 0  9998
2 43817  97.5422 131.8457 0011136 294.6871  65.3238 15.84232569285278
SPACEBEE-6              
1 43818U 18099BN  24048.40508277  .00028358  00000+0  15011-2 0  9997
2 43818  97.5574 117.5755 0009779 355.5084   4.6059 15.15349954284572
SHIELDS 1               
1 43850U 18104B   24048.32249498  .00015547  00000+0  47086-3 0  9992
2 43850  85.0272   4.8868 0012727 151.5809 208.6136 15.33953556287613
STF-1                   
1 43852U 18104D   24048.30577925  .01845989  31645-2  15929-2 0  9995
2 43852  84.9903 355.0352 0012029 133.6916 226.5375 16.14024848288605
ZACUBE-2                
1 43907U 18111AH  24048.48250889  .00132428  00000+0  11290-2 0  9991
2 43907  97.0917 290.3622 0010425  43.9276 316.2813 15.69063579287175
SONATE                  
1 44400U 19038Q   24048.44220339  .00020115  00000+0  72096-3 0  9993
2 44400  97.7084  37.7276 0018369 165.6211 194.5554 15.28608266255605
LUCKY-7                 
1 44406U 19038W   24048.44335674  .00031996  00000+0  94518-3 0  9990
2 44406  97.7016  40.4573 0016736 151.9626 208.2521 15.34753973255791
BEESAT 9                
1 44412U 19038AC  24048.46816983  .00095377  00000+0  15218-2 0  9998
2 44412  97.6871  45.8554 0013585 129.8981 230.3467 15.52778318255886
JAISAT-1                
1 44419U 19038F   24047.94957522  .00083500  00000+0  13561-2 0  9996
2 44419  97.6865  46.3904 0012993 131.0168 229.2209 15.52338417256182
DUCHIFAT-3              
1 44854U 19089C   24048.38331279  .00016876  00000+0  96242-3 0  9999
2 44854  36.9599  59.9082 0009382 189.6383 170.4184 15.12075443229887
M2 PATHFINDER           
1 45727U 20037E   24048.03496943  .00005515  00000+0  49573-3 0  9999
2 45727  97.7682 225.2520 0011893 162.0797 198.0846 14.96029434197823
NETSAT-4                
1 46504U 20068U   24048.42415744  .00013647  00000+0  79428-3 0  9997
2 46504  97.7919   2.7042 0012168  61.0040 299.2408 15.12100901185904
NETSAT-3                
1 46505U 20068V   24048.43632367  .00011319  00000+0  66722-3 0  9998
2 46505  97.7892   2.3601 0011547  68.8282 291.4181 15.11697996185901
NETSAT-1                
1 46506U 20068W   24048.44535035  .00008938  00000+0  54337-3 0  9996
2 46506  97.7916   2.0641 0010288  77.4759 282.7620 15.10659265185880
NETSAT-2                
1 46507U 20068X   24048.43428163  .00012417  00000+0  72532-3 0  9993
2 46507  97.7905   2.3879 0009685  82.5332 277.6998 15.12016868185854
WILDTRACKCUBE-SIMBA     
1 47941U 21022K   24048.46053979  .00014957  00000+0  74319-3 0  9995
2 47941  97.4747 306.5722 0015845 200.7121 159.3472 15.17646819160136
BEESAT-6                
1 47957U 21022AB  24047.94722950  .00074952  00000+0  19938-2 0  9992
2 47957  97.4620 312.1355 0011004 164.6603 195.4977 15.37887138160273
SMOG-1                  
1 47964U 21022AJ  24048.45497976  .00065336  00000+0  16799-2 0  9992
2 47964  97.4768 315.5386 0010960 149.7133 210.4748 15.38978572159532
BCCSAT-1                
1 48041U 21022AK  24048.46323143  .00048110  00000+0  15001-2 0  9990
2 48041  97.4762 313.1245 0009617 154.3429 205.8292 15.33039203159354
BEESAT-5                
1 48083U 21022AM  24047.68516383  .00097753  00000+0  23000-2 0  9994
2 48083  97.4478 312.5323 0010566 157.1368 203.0351 15.41544782159440
BEESAT-7                
1 48084U 21022AN  24047.98979374  .00064935  00000+0  17512-2 0  9998
2 48084  97.4704 312.5189 0010790 165.4568 194.6989 15.37510135159022
BEESAT-8                
1 48085U 21022AP  24047.91654048  .00027611  00000+0  11105-2 0  9992
2 48085  97.4832 309.4669 0013458 187.0013 173.1038 15.24791572159357
LEDSAT                  
1 49069U 21073D   24048.44604367  .00016145  00000+0  74142-3 0  9990
2 49069  97.4521 120.7441 0020841 351.2201   8.8666 15.20281672138084
